TURKSAT 1C              
1 23949U 96040B   26063.61410068 -.00000108  00000+0  00000+0 0  9997
2 23949  11.8999  30.9834 0004799 211.8292 213.0933  1.00380562108631
UFO 7 (USA 127)         
1 23967U 96042A   26063.15132766 -.00000238  00000+0  00000+0 0  9998
2 23967  11.0157  17.6423 0002932 107.4458  62.3346  1.00245194108438
INMARSAT 3-F2           
1 24307U 96053A   26063.02544715 -.00000063  00000+0  00000+0 0  9992
2 24307   9.6190  54.9906 0006066 292.3527  78.7401  0.99978308107877
ECHOSTAR 2              
1 24313U 96055A   26062.92254310 -.00000133  00000+0  00000+0 0  9996
2 24313  11.7999  32.3894 0008485  87.2633 270.4590  1.00350353107953
EXPRESS 2               
1 24435U 96058A   26063.51543747 -.00000157  00000+0  00000+0 0  9991
2 24435  14.5789 355.1546 0011179 348.4135  82.0331  1.00334466107765
SL-12 R/B(2)            
1 24438U 96058D   26062.95062324  .00000114  00000+0  00000+0 0  9990
2 24438  14.4002 351.8580 0006855 125.8173  64.7614  1.00235789107781
AFRICASAT-2 (MEASAT-2)  
1 24653U 96063B   26063.61674528 -.00000024  00000+0  00000+0 0  9995
2 24653  12.1014  29.7729 0005137 215.6531 217.7126  0.99649271107243
INMARSAT 3-F3           
1 24674U 96070A   26062.75919498 -.00000250  00000+0  00000+0 0  9999
2 24674  10.0910  50.6474 0006872 270.4488 265.6744  1.00001751106857
DFH 3-2                 
1 24798U 97021A   26062.75425495 -.00000370  00000+0  00000+0 0  9995
2 24798  13.4180  14.5851 0003407  94.9928  90.2818  1.00278532105460
AMC-3                   
1 24936U 97050A   26062.99627912 -.00000271  00000+0  00000+0 0  9995
2 24936   7.8887  65.2783 0003483 287.8217  95.3034  1.00271818 51387
USA 134                 
1 25019U 97065A   26063.41503084 -.00000070  00000+0  00000+0 0  9992
2 25019  12.6603  22.4983 0006985 307.0105 229.9566  1.00271226 31902
KUPON                   
1 25045U 97070A   26063.28400970 -.00000266  00000+0  00000+0 0  9999
2 25045  14.5604 355.4317 0005854 307.3982  52.5527  1.00287860103596
INDOSTAR 1              
1 25050U 97071B   26062.52128685  .00000119  00000+0  00000+0 0  9998
2 25050  12.8357  20.8205 0004918 299.1301  59.6404  1.00267187103738
GALAXY 8 (G-8)          
1 25086U 97078A   26063.49545993 -.00000122  00000+0  00000+0 0  9991
2 25086  13.9804  10.6699 0006799  18.2543  40.5820  0.99694931102904
INTELSAT 804 (IS-804)   
1 25110U 97083A   26062.32212273 -.00000073  00000+0  00000+0 0  9993
2 25110  13.0446  18.4142 0008758   8.8875  57.7063  1.00259973103270
INMARSAT 3-F5           
1 25153U 98006B   26063.42604031 -.00000298  00000+0  00000+0 0  9994
2 25153   9.4599  54.2851 0005391 296.0321 271.1771  1.00267995102840
UFO 8 (USA 138)         
1 25258U 98016A   26063.69354953 -.00000209  00000+0  00000+0 0  9997
2 25258  11.0046  23.3887 0008110 271.7314 268.1446  1.00287027102812
