[{"OBJECT_NAME":"TURKSAT 1C","OBJECT_ID":"1996-040B","EPOCH":"2026-03-04T14:44:18.298752","MEAN_MOTION":1.00380562,"ECCENTRICITY":0.0004799,"INCLINATION":11.8999,"RA_OF_ASC_NODE":30.9834,"ARG_OF_PERICENTER":211.8292,"MEAN_ANOMALY":213.0933,"EPHEMERIS_TYPE":0,"CLASSIFICATION_TYPE":"U","NORAD_CAT_ID":23949,"ELEMENT_SET_NO":999,"REV_AT_EPOCH":10863,"BSTAR":0,"MEAN_MOTION_DOT":-1.08e-6,"MEAN_MOTION_DDOT":0},{"OBJECT_NAME":"UFO 7 (USA 127)","OBJECT_ID":"1996-042A","EPOCH":"2026-03-04T03:37:54.709824","MEAN_MOTION":1.00245194,"ECCENTRICITY":0.00029327,"INCLINATION":11.0157,"RA_OF_ASC_NODE":17.6423,"ARG_OF_PERICENTER":107.4458,"MEAN_ANOMALY":62.3346,"EPHEMERIS_TYPE":0,"CLASSIFICATION_TYPE":"U","NORAD_CAT_ID":23967,"ELEMENT_SET_NO":999,"REV_AT_EPOCH":10843,"BSTAR":0,"MEAN_MOTION_DOT":-2.38e-6,"MEAN_MOTION_DDOT":0},{"OBJECT_NAME":"INMARSAT 3-F2","OBJECT_ID":"1996-053A","EPOCH":"2026-03-04T00:36:38.633760","MEAN_MOTION":0.99978308,"ECCENTRICITY":0.00060665,"INCLINATION":9.619,"RA_OF_ASC_NODE":54.9906,"ARG_OF_PERICENTER":292.3527,"MEAN_ANOMALY":78.7401,"EPHEMERIS_TYPE":0,"CLASSIFICATION_TYPE":"U","NORAD_CAT_ID":24307,"ELEMENT_SET_NO":999,"REV_AT_EPOCH":10787,"BSTAR":0,"MEAN_MOTION_DOT":-6.3e-7,"MEAN_MOTION_DDOT":0},{"OBJECT_NAME":"ECHOSTAR 2","OBJECT_ID":"1996-055A","EPOCH":"2026-03-03T22:08:27.723840","MEAN_MOTION":1.00350353,"ECCENTRICITY":0.0008485,"INCLINATION":11.7999,"RA_OF_ASC_NODE":32.3894,"ARG_OF_PERICENTER":87.2633,"MEAN_ANOMALY":270.459,"EPHEMERIS_TYPE":0,"CLASSIFICATION_TYPE":"U","NORAD_CAT_ID":24313,"ELEMENT_SET_NO":999,"REV_AT_EPOCH":10795,"BSTAR":0,"MEAN_MOTION_DOT":-1.33e-6,"MEAN_MOTION_DDOT":0},{"OBJECT_NAME":"EXPRESS 2","OBJECT_ID":"1996-058A","EPOCH":"2026-03-04T12:22:13.797408","MEAN_MOTION":1.00334466,"ECCENTRICITY":0.00111794,"INCLINATION":14.5789,"RA_OF_ASC_NODE":355.1546,"ARG_OF_PERICENTER":348.4135,"MEAN_ANOMALY":82.0331,"EPHEMERIS_TYPE":0,"CLASSIFICATION_TYPE":"U","NORAD_CAT_ID":24435,"ELEMENT_SET_NO":999,"REV_AT_EPOCH":10776,"BSTAR":0,"MEAN_MOTION_DOT":-1.57e-6,"MEAN_MOTION_DDOT":0},{"OBJECT_NAME":"SL-12 R/B(2)","OBJECT_ID":"1996-058D","EPOCH":"2026-03-03T22:48:53.847936","MEAN_MOTION":1.00235789,"ECCENTRICITY":0.0006855,"INCLINATION":14.4002,"RA_OF_ASC_NODE":351.858,"ARG_OF_PERICENTER":125.8173,"MEAN_ANOMALY":64.7614,"EPHEMERIS_TYPE":0,"CLASSIFICATION_TYPE":"U","NORAD_CAT_ID":24438,"ELEMENT_SET_NO":999,"REV_AT_EPOCH":10778,"BSTAR":0,"MEAN_MOTION_DOT":1.14e-6,"MEAN_MOTION_DDOT":0},{"OBJECT_NAME":"AFRICASAT-2 (MEASAT-2)","OBJECT_ID":"1996-063B","EPOCH":"2026-03-04T14:48:06.792192","MEAN_MOTION":0.99649271,"ECCENTRICITY":0.0005137,"INCLINATION":12.1014,"RA_OF_ASC_NODE":29.7729,"ARG_OF_PERICENTER":215.6531,"MEAN_ANOMALY":217.7126,"EPHEMERIS_TYPE":0,"CLASSIFICATION_TYPE":"U","NORAD_CAT_ID":24653,"ELEMENT_SET_NO":999,"REV_AT_EPOCH":10724,"BSTAR":0,"MEAN_MOTION_DOT":-2.4e-7,"MEAN_MOTION_DDOT":0},{"OBJECT_NAME":"INMARSAT 3-F3","OBJECT_ID":"1996-070A","EPOCH":"2026-03-03T18:13:14.446272","MEAN_MOTION":1.00001751,"ECCENTRICITY":0.00068723,"INCLINATION":10.091,"RA_OF_ASC_NODE":50.6474,"ARG_OF_PERICENTER":270.4488,"MEAN_ANOMALY":265.6744,"EPHEMERIS_TYPE":0,"CLASSIFICATION_TYPE":"U","NORAD_CAT_ID":24674,"ELEMENT_SET_NO":999,"REV_AT_EPOCH":10685,"BSTAR":0,"MEAN_MOTION_DOT":-2.5e-6,"MEAN_MOTION_DDOT":0},{"OBJECT_NAME":"DFH 3-2","OBJECT_ID":"1997-021A","EPOCH":"2026-03-03T18:06:07.627680","MEAN_MOTION":1.00278532,"ECCENTRICITY":0.00034075,"INCLINATION":13.418,"RA_OF_ASC_NODE":14.5851,"ARG_OF_PERICENTER":94.9928,"MEAN_ANOMALY":90.2818,"EPHEMERIS_TYPE":0,"CLASSIFICATION_TYPE":"U","NORAD_CAT_ID":24798,"ELEMENT_SET_NO":999,"REV_AT_EPOCH":10546,"BSTAR":0,"MEAN_MOTION_DOT":-3.7e-6,"MEAN_MOTION_DDOT":0},{"OBJECT_NAME":"AMC-3","OBJECT_ID":"1997-050A","EPOCH":"2026-03-03T23:54:38.515968","MEAN_MOTION":1.00271818,"ECCENTRICITY":0.00034833,"INCLINATION":7.8887,"RA_OF_ASC_NODE":65.2783,"ARG_OF_PERICENTER":287.8217,"MEAN_ANOMALY":95.3034,"EPHEMERIS_TYPE":0,"CLASSIFICATION_TYPE":"U","NORAD_CAT_ID":24936,"ELEMENT_SET_NO":999,"REV_AT_EPOCH":5138,"BSTAR":0,"MEAN_MOTION_DOT":-2.71e-6,"MEAN_MOTION_DDOT":0},{"OBJECT_NAME":"USA 134","OBJECT_ID":"1997-065A","EPOCH":"2026-03-04T09:57:38.664576","MEAN_MOTION":1.00271226,"ECCENTRICITY":0.0006985,"INCLINATION":12.6603,"RA_OF_ASC_NODE":22.4983,"ARG_OF_PERICENTER":307.0105,"MEAN_ANOMALY":229.9566,"EPHEMERIS_TYPE":0,"CLASSIFICATION_TYPE":"U","NORAD_CAT_ID":25019,"ELEMENT_SET_NO":999,"REV_AT_EPOCH":3190,"BSTAR":0,"MEAN_MOTION_DOT":-7.0e-7,"MEAN_MOTION_DDOT":0},{"OBJECT_NAME":"KUPON","OBJECT_ID":"1997-070A","EPOCH":"2026-03-04T06:48:58.438080","MEAN_MOTION":1.0028786,"ECCENTRICITY":0.00058542,"INCLINATION":14.5604,"RA_OF_ASC_NODE":355.4317,"ARG_OF_PERICENTER":307.3982,"MEAN_ANOMALY":52.5527,"EPHEMERIS_TYPE":0,"CLASSIFICATION_TYPE":"U","NORAD_CAT_ID":25045,"ELEMENT_SET_NO":999,"REV_AT_EPOCH":10359,"BSTAR":0,"MEAN_MOTION_DOT":-2.66e-6,"MEAN_MOTION_DDOT":0},{"OBJECT_NAME":"INDOSTAR 1","OBJECT_ID":"1997-071B","EPOCH":"2026-03-03T12:30:39.183840","MEAN_MOTION":1.00267187,"ECCENTRICITY":0.0004918,"INCLINATION":12.8357,"RA_OF_ASC_NODE":20.8205,"ARG_OF_PERICENTER":299.1301,"MEAN_ANOMALY":59.6404,"EPHEMERIS_TYPE":0,"CLASSIFICATION_TYPE":"U","NORAD_CAT_ID":25050,"ELEMENT_SET_NO":999,"REV_AT_EPOCH":10373,"BSTAR":0,"MEAN_MOTION_DOT":1.19e-6,"MEAN_MOTION_DDOT":0},{"OBJECT_NAME":"GALAXY 8 (G-8)","OBJECT_ID":"1997-078A","EPOCH":"2026-03-04T11:53:27.737952","MEAN_MOTION":0.99694931,"ECCENTRICITY":0.00067997,"INCLINATION":13.9804,"RA_OF_ASC_NODE":10.6699,"ARG_OF_PERICENTER":18.2543,"MEAN_ANOMALY":40.582,"EPHEMERIS_TYPE":0,"CLASSIFICATION_TYPE":"U","NORAD_CAT_ID":25086,"ELEMENT_SET_NO":999,"REV_AT_EPOCH":10290,"BSTAR":0,"MEAN_MOTION_DOT":-1.22e-6,"MEAN_MOTION_DDOT":0},{"OBJECT_NAME":"INTELSAT 804 (IS-804)","OBJECT_ID":"1997-083A","EPOCH":"2026-03-03T07:43:51.403872","MEAN_MOTION":1.00259973,"ECCENTRICITY":0.00087581,"INCLINATION":13.0446,"RA_OF_ASC_NODE":18.4142,"ARG_OF_PERICENTER":8.8875,"MEAN_ANOMALY":57.7063,"EPHEMERIS_TYPE":0,"CLASSIFICATION_TYPE":"U","NORAD_CAT_ID":25110,"ELEMENT_SET_NO":999,"REV_AT_EPOCH":10327,"BSTAR":0,"MEAN_MOTION_DOT":-7.3e-7,"MEAN_MOTION_DDOT":0},{"OBJECT_NAME":"INMARSAT 3-F5","OBJECT_ID":"1998-006B","EPOCH":"2026-03-04T10:13:29.882784","MEAN_MOTION":1.00267995,"ECCENTRICITY":0.00053912,"INCLINATION":9.4599,"RA_OF_ASC_NODE":54.2851,"ARG_OF_PERICENTER":296.0321,"MEAN_ANOMALY":271.1771,"EPHEMERIS_TYPE":0,"CLASSIFICATION_TYPE":"U","NORAD_CAT_ID":25153,"ELEMENT_SET_NO":999,"REV_AT_EPOCH":10284,"BSTAR":0,"MEAN_MOTION_DOT":-2.98e-6,"MEAN_MOTION_DDOT":0},{"OBJECT_NAME":"UFO 8 (USA 138)","OBJECT_ID":"1998-016A","EPOCH":"2026-03-04T16:38:42.679392","MEAN_MOTION":1.00287027,"ECCENTRICITY":0.000811,"INCLINATION":11.0046,"RA_OF_ASC_NODE":23.3887,"ARG_OF_PERICENTER":271.7314,"MEAN_ANOMALY":268.1446,"EPHEMERIS_TYPE":0,"CLASSIFICATION_TYPE":"U","NORAD_CAT_ID":25258,"ELEMENT_SET_NO":999,"REV_AT_EPOCH":10281,"BSTAR":0,"MEAN_MOTION_DOT":-2.09e-6,"MEAN_MOTION_DDOT":0}]
